YAOGAN-30 07B           
1 45461U 20021B   26068.53469634  .00003828  00000+0  28705-3 0  9992
2 45461  34.9937  97.6546 0001580  52.3271 307.7581 15.02173900325490
STARLINK-5947           
1 55989U 23042D   26068.39547279 -.00000263  00000+0 -43891-5 0  9997
2 55989  43.0040  57.9230 0001391 275.2329  84.8355 15.02534572162869
